NORAD_CAT_ID,OBJECT_NAME,OBJECT_TYPE,EPOCH,MEAN_MOTION,ECCENTRICITY,INCLINATION,RA_OF_ASC_NODE,ARG_OF_PERICENTER,MEAN_ANOMALY,BSTAR,MEAN_MOTION_DOT,MEAN_MOTION_DDOT,TLE_LINE0,TLE_LINE1,TLE_LINE2,SEMIMAJOR_AXIS,PERIOD,APOGEE,PERIGEE,DECAYED
52667.0,STARLINK-4076,PAYLOAD,2022-12-13 11:19:00,15.08845399,0.0002356,53.2188,61.315,39.293,320.8232,6.7888e-05,7.92e-06,0.0,0 STARLINK-4076,1 52667U 22053M   22347.47153236  .00000792  00000-0  67888-4 0  9996,2 52667  53.2188  61.3150 0002356  39.2930 320.8232 15.08845399 32572,6917.864000000001,95.437,541.359,538.099,0.0
52667.0,STARLINK-4076,PAYLOAD,2022-12-14 07:59:01,15.08837898,0.0002255,53.2182,57.4495,36.5996,323.515,6.2538e-05,7.07e-06,0.0,0 STARLINK-4076,1 52667U 22053M   22348.33265696  .00000707  00000-0  62538-4 0  9999,2 52667  53.2182  57.4495 0002255  36.5996 323.5150 15.08837898 32703,6917.887,95.438,541.312,538.192,0.0
52667.0,STARLINK-4076,PAYLOAD,2022-12-14 11:09:47,15.08838625,0.0002256,53.2182,56.8548,36.4714,323.6432,6.2876e-05,7.12e-06,0.0,0 STARLINK-4076,1 52667U 22053M   22348.46513665  .00000712  00000-0  62876-4 0  9996,2 52667  53.2182  56.8548 0002256  36.4714 323.6432 15.08838625 32728,6917.885,95.438,541.31,538.189,0.0
52667.0,STARLINK-4076,PAYLOAD,2022-12-14 14:20:33,15.08842381,0.0002247,53.2183,56.2603,35.5192,324.5949,8.823799999999999e-05,1.116e-05,0.0,0 STARLINK-4076,1 52667U 22053M   22348.59761337  .00001116  00000-0  88238-4 0  9990,2 52667  53.2183  56.2603 0002247  35.5192 324.5949 15.08842381 32744,6917.873000000001,95.437,541.293,538.184,0.0
52667.0,STARLINK-4076,PAYLOAD,2022-12-15 11:00:34,15.0884615,0.000227,53.2182,52.3953,32.9345,327.1788,0.00014147,1.964e-05,0.0,0 STARLINK-4076,1 52667U 22053M   22349.45872707  .00001964  00000-0  14147-3 0  9998,2 52667  53.2182  52.3953 0002270  32.9345 327.1788 15.08846150 32877,6917.861999999999,95.437,541.297,538.156,0.0
52667.0,STARLINK-4076,PAYLOAD,2022-12-15 14:11:20,15.08850502,0.0002239,53.2185,51.8007,33.9035,326.21,2.5177e-05,1.12e-06,0.0,0 STARLINK-4076,1 52667U 22053M   22349.59120622  .00000112  00000-0  25177-4 0  9995,2 52667  53.2185  51.8007 0002239  33.9035 326.2100 15.08850502 32892,6917.848000000001,95.437,541.262,538.164,0.0
52667.0,STARLINK-4076,PAYLOAD,2022-12-16 10:51:21,15.08836003,0.0002272,53.2181,47.9342,30.1008,330.0114,7.6914e-06,-1.66e-06,0.0,0 STARLINK-4076,1 52667U 22053M   22350.45233720 -.00000166  00000-0  76914-5 0  9992,2 52667  53.2181  47.9342 0002272  30.1008 330.0114 15.08836003 33026,6917.893,95.438,541.3290000000002,538.186,0.0
52667.0,STARLINK-4076,PAYLOAD,2022-12-16 12:26:45,15.08834264,0.0002278,53.2182,47.6374,32.6838,327.4295,-1.6691e-05,-5.54e-06,0.0,0 STARLINK-4076,1 52667U 22053M   22350.51857868 -.00000554  00000-0 -16691-4 0  9991,2 52667  53.2182  47.6374 0002278  32.6838 327.4295 15.08834264 33031,6917.898,95.438,541.339,538.187,0.0
52667.0,STARLINK-4076,PAYLOAD,2022-12-16 14:02:08,15.08835006,0.000228,53.2181,47.3397,32.4615,327.6517,-9.5913e-06,-4.41e-06,0.0,0 STARLINK-4076,1 52667U 22053M   22350.58481826 -.00000441  00000-0 -95913-5 0  9995,2 52667  53.2181  47.3397 0002280  32.4615 327.6517 15.08835006 33041,6917.896,95.438,541.3380000000002,538.183,0.0
52667.0,STARLINK-4076,PAYLOAD,2022-12-17 10:42:09,15.08828615,0.0002299,53.218,43.4742,32.8026,327.3108,-7.260800000000001e-05,-1.443e-05,0.0,0 STARLINK-4076,1 52667U 22053M   22351.44594674 -.00001443  00000-0 -72608-4 0  9995,2 52667  53.2180  43.4742 0002299  32.8026 327.3108 15.08828615 33176,6917.915,95.438,541.371,538.19,0.0
52667.0,STARLINK-4076,PAYLOAD,2022-12-17 20:14:28,15.08827543,0.0002373,53.2182,41.6901,32.4868,327.627,5.6025e-05,6.03e-06,0.0,0 STARLINK-4076,1 52667U 22053M   22351.84338725  .00000603  00000-0  56025-4 0  9992,2 52667  53.2182  41.6901 0002373  32.4868 327.6270 15.08827543 33237,6917.918000000002,95.438,541.425,538.1419999999998,0.0
52667.0,STARLINK-4076,PAYLOAD,2022-12-18 04:11:24,15.088296,0.0002271,53.2183,40.2028,30.0758,330.0365,0.00014165,1.966e-05,0.0,0 STARLINK-4076,1 52667U 22053M   22352.17458400  .00001966  00000-0  14165-3 0  9993,2 52667  53.2183  40.2028 0002271  30.0758 330.0365 15.08829600 33286,6917.9119999999975,95.438,541.3480000000002,538.206,0.0
52667.0,STARLINK-4076,PAYLOAD,2022-12-18 12:08:20,15.08827562,0.0002257,53.2182,38.716,30.104,330.0081,0.00012558,1.7100000000000002e-05,0.0,0 STARLINK-4076,1 52667U 22053M   22352.50578882  .00001710  00000-0  12558-3 0  9998,2 52667  53.2182  38.7160 0002257  30.1040 330.0081 15.08827562 33339,6917.918000000002,95.438,541.345,538.222,0.0
52667.0,STARLINK-4076,PAYLOAD,2022-12-18 20:05:15,15.08832276,0.0002311,53.2186,37.2297,33.132,326.9817,0.00011159,1.488e-05,0.0,0 STARLINK-4076,1 52667U 22053M   22352.83698840  .00001488  00000-0  11159-3 0  9999,2 52667  53.2186  37.2297 0002311  33.1320 326.9817 15.08832276 33387,6917.904,95.438,541.368,538.17,0.0
52667.0,STARLINK-4076,PAYLOAD,2022-12-19 07:12:58,15.0883052,0.0002337,53.2186,35.1485,32.8661,327.2476,0.00014311,1.989e-05,0.0,0 STARLINK-4076,1 52667U 22053M   22353.30067202  .00001989  00000-0  14311-3 0  9993,2 52667  53.2186  35.1485 0002337  32.8661 327.2476 15.08830520 33458,6917.909000000002,95.438,541.391,538.158,0.0
52667.0,STARLINK-4076,PAYLOAD,2022-12-19 13:34:30,15.08838162,0.0002348,53.2182,33.9585,30.9542,329.1588,0.0001988,2.877e-05,0.0,0 STARLINK-4076,1 52667U 22053M   22353.56562774  .00002877  00000-0  19880-3 0  9998,2 52667  53.2182  33.9585 0002348  30.9542 329.1588 15.08838162 33499,6917.886,95.438,541.375,538.127,0.0
52667.0,STARLINK-4076,PAYLOAD,2022-12-20 08:39:06,15.08859571,0.0002418,53.2176,30.3903,33.7841,326.3305,0.00023724,3.491e-05,0.0,0 STARLINK-4076,1 52667U 22053M   22354.36049571  .00003491  00000-0  23724-3 0  9997,2 52667  53.2176  30.3903 0002418  33.7841 326.3305 15.08859571 33615,6917.821,95.436,541.3580000000002,538.013,0.0
52667.0,STARLINK-4076,PAYLOAD,2022-12-20 11:49:53,15.08855346,0.0002489,53.2177,29.7962,31.4685,328.6455,0.00020279,2.942e-05,0.0,0 STARLINK-4076,1 52667U 22053M   22354.49297707  .00002942  00000-0  20279-3 0  9999,2 52667  53.2177  29.7962 0002489  31.4685 328.6455 15.08855346 33631,6917.833000000001,95.437,541.42,537.977,0.0
52667.0,STARLINK-4076,PAYLOAD,2022-12-20 15:00:39,15.08854408,0.0002556,53.2183,29.202,32.0896,328.0252,0.00022387,3.278e-05,0.0,0 STARLINK-4076,1 52667U 22053M   22354.62545706  .00003278  00000-0  22387-3 0  9994,2 52667  53.2183  29.2020 0002556  32.0896 328.0252 15.08854408 33653,6917.8359999999975,95.437,541.47,537.933,0.0
52667.0,STARLINK-4076,PAYLOAD,2022-12-21 08:29:54,15.08834154,0.000252,53.2175,25.9295,34.6263,325.4892,-4.4591e-05,-9.98e-06,0.0,0 STARLINK-4076,1 52667U 22053M   22355.35410758 -.00000998  00000-0 -44591-4 0  9993,2 52667  53.2175  25.9295 0002520  34.6263 325.4892 15.08834154 33767,6917.898,95.438,541.507,538.02,0.0
52667.0,STARLINK-4076,PAYLOAD,2022-12-22 11:31:28,15.08832448,0.0002173,53.2195,20.8729,36.5358,323.5782,6.839e-05,8e-06,0.0,0 STARLINK-4076,1 52667U 22053M   22356.48019022  .00000800  00000-0  68390-4 0  9990,2 52667  53.2195  20.8729 0002173  36.5358 323.5782 15.08832448 33935,6917.903,95.438,541.2719999999998,538.265,0.0
52667.0,STARLINK-4076,PAYLOAD,2022-12-22 13:06:51,15.08819288,0.0001946,53.2191,20.5756,43.9757,316.139,0.00025498,3.77e-05,0.0,0 STARLINK-4076,1 52667U 22053M   22356.54643356  .00003770  00000-0  25498-3 0  9990,2 52667  53.2191  20.5756 0001946  43.9757 316.1390 15.08819288 33941,6917.944,95.439,541.155,538.462,0.0
52667.0,STARLINK-4076,PAYLOAD,2022-12-23 01:49:56,15.08836707,0.0002501,53.2189,18.1982,31.2987,328.8154,0.00012717,1.736e-05,0.0,0 STARLINK-4076,1 52667U 22053M   22357.07634808  .00001736  00000-0  12717-3 0  9991,2 52667  53.2189  18.1982 0002501  31.2987 328.8154 15.08836707 34028,6917.89,95.438,541.486,538.025,0.0
52667.0,STARLINK-4076,PAYLOAD,2022-12-23 08:11:29,15.08834952,0.000251,53.2189,17.0085,31.7751,328.3392,0.00012649,1.725e-05,0.0,0 STARLINK-4076,1 52667U 22053M   22357.34131003  .00001725  00000-0  12649-3 0  9992,2 52667  53.2189  17.0085 0002510  31.7751 328.3392 15.08834952 34067,6917.896,95.438,541.497,538.024,0.0
52667.0,STARLINK-4076,PAYLOAD,2022-12-24 01:40:44,15.08831851,0.0002546,53.2187,13.7378,32.9854,327.1296,6.8974e-05,8.09e-06,0.0,0 STARLINK-4076,1 52667U 22053M   22358.06995753  .00000809  00000-0  68974-4 0  9997,2 52667  53.2187  13.7378 0002546  32.9854 327.1296 15.08831851 34176,6917.905,95.438,541.5319999999998,538.009,0.0
52667.0,STARLINK-4076,PAYLOAD,2022-12-24 11:13:02,15.0884186,0.0002591,53.2187,11.9541,34.0738,326.0420000000001,0.00014054,1.949e-05,0.0,0 STARLINK-4076,1 52667U 22053M   22358.46739027  .00001949  00000-0  14054-3 0  9996,2 52667  53.2187  11.9541 0002591  34.0738 326.0420 15.08841860 34237,6917.875,95.437,541.5319999999998,537.947,0.0
52667.0,STARLINK-4076,PAYLOAD,2022-12-24 17:34:35,15.08838224,0.0002647,53.2185,10.7633,33.431999999999995,326.6839,8.6009e-05,1.081e-05,0.0,0 STARLINK-4076,1 52667U 22053M   22358.73235483  .00001081  00000-0  86009-4 0  9990,2 52667  53.2185  10.7633 0002647  33.4320 326.6839 15.08838224 34270,6917.886,95.438,541.582,537.92,0.0
52667.0,STARLINK-4076,PAYLOAD,2022-12-25 11:03:50,15.08836509,0.0002526,53.2182,7.4945,32.4753,327.6394,5.281e-05,5.52e-06,0.0,0 STARLINK-4076,1 52667U 22053M   22359.46099546  .00000552  00000-0  52810-4 0  9994,2 52667  53.2182   7.4945 0002526  32.4753 327.6394 15.08836509 34384,6917.891,95.438,541.504,538.009,0.0
52667.0,STARLINK-4076,PAYLOAD,2022-12-26 09:19:14,15.08845164,0.0002485,53.2183,3.3306,33.1648,326.95,-0.0001244,-2.268e-05,0.0,0 STARLINK-4076,1 52667U 22053M   22360.38835688 -.00002268  00000-0 -12440-3 0  9994,2 52667  53.2183   3.3306 0002485  33.1648 326.9500 15.08845164 34520,6917.865,95.437,541.4490000000002,538.011,0.0
